STARLINK-35641          
1 66167U 25240X   25326.07223558  .00050775  00000+0  91564-3 0  9990
2 66167  53.1590 203.2421 0000953 129.6475 230.4619 15.49290994  5503
STARLINK-35578          
1 66168U 25240Y   25325.94182917  .00045380  00000+0  81968-3 0  9992
2 66168  53.1592 203.8508 0001135  88.2535 271.8604 15.49294405  5489
STARLINK-35638          
1 66169U 25240Z   25325.94251617  .00073269  00000+0  13136-2 0  9995
2 66169  53.1595 203.8547 0001218  84.6013 275.5135 15.49297330  5489
STARLINK-35585          
1 66170U 25240AA  25325.94152729 -.00081629  00000+0 -14920-2 0  9994
2 66170  53.1597 203.8488 0003261  19.6589 340.4545 15.48975070  5483
STARLINK-35606          
1 66171U 25240AB  25326.07015916  .00039545  00000+0  71547-3 0  9993
2 66171  53.1592 203.2283 0001109  77.6011 282.5122 15.49309655  5500
STARLINK-35627          
1 66172U 25240AC  25325.94217243  .00067105  00000+0  12045-2 0  9996
2 66172  53.1594 203.8523 0000915  61.0310 299.0791 15.49304178  5486
STARLINK-35634          
1 66173U 25240AD  25326.06981571  .00035570  00000+0  64467-3 0  9990
2 66173  53.1595 203.2272 0001158  72.1788 287.9347 15.49309588  5501
HTV-X1                  
1 66174U 25241A   25324.86734766  .00014275  00000+0  26737-3 0  9997
2 66174  51.6324 250.7347 0003960 150.1460 209.9755 15.48935269  1459
GAOFEN-14 02            
1 66175U 25242A   25318.46556247  .00014152  00000+0  52318-3 0  9992
2 66175  97.4386  30.6022 0011017 193.9078 166.1859 15.27766001  2951
CZ-3B R/B               
1 66176U 25242B   25309.65934494  .00029904  00000+0  58815-3 0  9997
2 66176  97.4571  21.8726 0103778   5.1082 355.1197 15.41457457  1622
STARLINK-35352          
1 66177U 25243A   25326.16673610  .00073844  00000+0  13255-2 0  9994
2 66177  53.1602  25.1521 0001132  91.2341 314.9660 15.49261133  5277
STARLINK-35363          
1 66178U 25243B   25326.16673610  .00004853  00000+0  95162-4 0  9998
2 66178  53.1602  25.1596 0001144  81.9428 320.3918 15.49338303  5333
